CUTE-1 (CO-55)          
1 27844U 03031E   24348.47228597  .00000723  00000+0  33577-3 0  9996
2 27844  98.6776 353.0669 0009497 351.1649   8.9361 14.23698568113295
CUBESAT XI-IV (CO-57)   
1 27848U 03031J   24348.48048266  .00000601  00000+0  28564-3 0  9999
2 27848  98.6806 353.2095 0009709   7.8360 352.2968 14.23077060113037
CUBESAT XI-V            
1 28895U 05043F   24348.16010075  .00003037  00000+0  51846-3 0  9994
2 28895  98.2235 124.7473 0015596 149.1877 211.0247 14.69618269 20724
CUTE-1.7+APD II (CO-65) 
1 32785U 08021C   24348.56051988  .00007103  00000+0  56160-3 0  9990
2 32785  97.7701 313.1040 0013106 103.5362 256.7323 15.00891202902345
AAUSAT-II               
1 32788U 08021F   24347.75090452  .00052282  00000+0  14484-2 0  9992
2 32788  97.6041 330.7582 0001065  79.3135 280.8228 15.36790459905547
CANX-2                  
1 32790U 08021H   24348.63716097  .00006219  00000+0  52041-3 0  9994
2 32790  97.7899 311.7374 0012874  96.4807 263.7882 14.98759940902210
SEEDS II (CO-66)        
1 32791U 08021J   24348.19951961  .00014692  00000+0  87560-3 0  9995
2 32791  97.7105 319.4470 0007343  67.0145 293.1858 15.11263843903564
SWISSCUBE               
1 35932U 09051B   24348.41914715  .00002107  00000+0  44535-3 0  9993
2 35932  98.4484 235.2184 0007961 117.3079 242.8932 14.60392075808707
BEESAT-1                
1 35933U 09051C   24348.67216914  .00001890  00000+0  40438-3 0  9994
2 35933  98.4414 236.1304 0006204 126.5021 233.6750 14.59946476808886
ITUPSAT1                
1 35935U 09051E   24348.13446186  .00001644  00000+0  36195-3 0  9995
2 35935  98.4511 235.2604 0008260 137.5840 222.5999 14.58807008808343
TISAT 1                 
1 36799U 10035E   24348.65741655  .00014582  00000+0  91189-3 0  9993
2 36799  98.0711 246.4811 0004800  17.0232 343.1155 15.09536333784262
AEROCUBE 4.5A           
1 38767U 12048K   24348.56273821  .00022625  00000+0  87115-3 0  9992
2 38767  64.6533  93.3363 0111171 322.4225  36.9166 15.20726172287639
AEROCUBE 4.5B           
1 38768U 12048L   24348.03881282  .00107816  00000+0  14526-2 0  9992
2 38768  64.6448   0.6739 0067422 312.4257  47.1193 15.54552586288904
STRAND-1                
1 39090U 13009E   24348.45415087  .00000709  00000+0  25587-3 0  9994
2 39090  98.3766 171.8696 0009874  78.3528 281.8767 14.36514448617970
BRITE-AUSTRIA           
1 39091U 13009F   24348.75044683  .00000475  00000+0  17778-3 0  9991
2 39091  98.3817 171.4314 0011432  84.3498 275.8991 14.36106233618047
NEE-01 PEGASO           
1 39151U 13018B   24347.99793994  .00004714  00000+0  51119-3 0  9996
2 39151  98.0529 107.4025 0014314 172.3804 187.7632 14.88600628628543
ESTCUBE 1               
1 39161U 13021C   24348.63017713  .00002971  00000+0  41516-3 0  9994
2 39161  97.8085  49.6416 0008925  17.2355 342.9158 14.78336810623628
POPACS 1                
1 39268U 13055D   24348.16562887  .00042122 -21790-6  55918-3 0  9994
2 39268  80.9787 302.5802 0325428 227.2236 130.1205 15.14728076587415
POPACS 2                
1 39269U 13055E   24348.15262173  .00021254  00000+0  44867-3 0  9996
2 39269  81.0000  43.8096 0513743 133.5050 231.0071 14.66507590581731
POPACS 3                
1 39270U 13055F   24348.56565556  .00010152  00000+0  27113-3 0  9994
2 39270  81.0082 100.4569 0604993 291.7627  62.0236 14.42407934579471
ZACUBE-1 (TSHEPISOSAT)  
1 39417U 13066B   24347.82929870  .00008383  00000+0  78924-3 0  9999
2 39417  97.7576 300.4743 0044973 289.6936  69.9434 14.93331266598205
WNISAT-1                
1 39423U 13066H   24348.48672864  .00002244  00000+0  42723-3 0  9995
2 39423  97.6640 168.3882 0167654 165.4672 195.1436 14.56322369586527
TRITON-1                
1 39427U 13066M   24348.70580397  .00004450  00000+0  59172-3 0  9990
2 39427  97.8411 261.1867 0096502 222.3505 137.0228 14.77008717592875
DELFI-N3XT              
1 39428U 13066N   24348.76035106  .00008791  00000+0  99215-3 0  9994
2 39428  97.8374 262.9527 0090035 223.8295 135.5751 14.83849357592844
GOMX-1                  
1 39430U 13066Q   24348.73813455  .00003278  00000+0  52659-3 0  9991
2 39430  97.7042 212.2064 0136878  41.3647 319.7827 14.66146838589337
CUBEBUG-2 (LO-74)       
1 39440U 13066AA  24348.28091696  .00006220  00000+0  67340-3 0  9990
2 39440  97.8319 288.6540 0067429  48.3295 312.3666 14.86921991594916
NEE-02 KRYSAOR          
1 39441U 13066AB  24348.79441012  .00003970  00000+0  47857-3 0  9998
2 39441  97.8403 284.1921 0073108  71.3030 289.6101 14.82490167595686
FUNCUBE-1 (AO-73)       
1 39444U 13066AE  24348.31424765  .00009660  00000+0  81816-3 0  9990
2 39444  97.7437 304.6874 0040739 264.1475  95.5102 14.97557214596868
UWE-3                   
1 39446U 13066AG  24348.55607476  .00007874  00000+0  80091-3 0  9999
2 39446  97.8034 295.0911 0056538 350.9378   9.0814 14.89838812595371
BRITE-CA1 (TORONTO)     
1 40020U 14033L   24348.65207686  .00002363  00000+0  37740-3 0  9995
2 40020  97.9009 119.8899 0080391 238.3337 121.0012 14.70676653561348
DUCHIFAT-1              
1 40021U 14033M   24348.42012806  .00019586  00000+0  98352-3 0  9990
2 40021  98.0990 342.8204 0009173 199.6666 160.4213 15.17303030571205
NANOSATC-BR1            
1 40024U 14033Q   24348.19247963  .00014019  00000+0  84468-3 0  9990
2 40024  98.0801 328.8545 0003434 306.9025  53.1888 15.10906505570201
QB50P1                  
1 40025U 14033R   24348.19741310  .00011453  00000+0  80266-3 0  9997
2 40025  98.0648 315.7665 0010161 306.3882  53.6405 15.05349532569752
QB50P2                  
1 40032U 14033Y   24348.60450702  .00009113  00000+0  66848-3 0  9993
2 40032  98.0230 306.5719 0006781 233.8973 126.1624 15.03720677570104
PERSEUS-M2              
1 40037U 14033AD  24348.77761130  .00003661  00000+0  36345-3 0  9997
2 40037  97.9409 280.5107 0011873 330.4991  29.5557 14.92328357569092
PERSEUS-M1              
1 40039U 14033AF  24348.75677116  .00004078  00000+0  40536-3 0  9997
2 40039  97.9179 276.0118 0011613 329.7754  30.2793 14.92214918568952
POLYITAN-1              
1 40042U 14033AJ  24347.68260428  .00016480  00000+0  10008-2 0  9996
2 40042  98.0891 320.4725 0008752 250.1713 109.8572 15.10554235570219
TIGRISAT                
1 40043U 14033AK  24348.71399677  .00003673  00000+0  46636-3 0  9998
2 40043  97.7107 144.1793 0054257  78.3236 282.4059 14.81224510564312
AEROCUBE 6A             
1 40045U 14033AM  24347.88529234  .00008238  00000+0  87896-3 0  9996
2 40045  97.6756 154.9940 0047129  53.6095 306.9456 14.88260480564568
AEROCUBE 6B             
1 40046U 14033AN  24347.40653547  .00009003  00000+0  93765-3 0  9993
2 40046  97.6729 153.4149 0045655  49.7217 310.7978 14.89258190564320
CANX-4                  
1 40055U 14034C   24348.51740694  .00002125  00000+0  29271-3 0  9996
2 40055  98.3774 190.7761 0012982 343.2788  16.7992 14.79322327563055
CANX-5                  
1 40056U 14034D   24348.45370024  .00002141  00000+0  29489-3 0  9995
2 40056  98.3777 190.7223 0012986 343.6592  16.4197 14.79333533553855
UKUBE-1                 
1 40074U 14037F   24348.26742137  .00011565  00000+0  93787-3 0  9997
2 40074  98.3610 290.0464 0002699 121.7487 238.3997 14.99852465565566
BRITE-PL2 (HEWELIUSZ)   
1 40119U 14049B   24348.14077612  .00003127  00000+0  32165-3 0  9994
2 40119  97.8874  87.2975 0016028 132.2033 228.0549 14.90959747559227
AEROCUBE 5C             
1 40965U 15058B   24348.09888822  .00005664  00000+0  48682-3 0  9990
2 40965  64.7669 171.1877 0186665 254.6396 103.4021 14.85881572283590
AEROCUBE 7              
1 40966U 15058C   24347.91603183  .00007717  00000+0  62539-3 0  9994
2 40966  64.7637 163.5825 0180191 254.3569 103.7595 14.88474122283671
FOX-1A (AO-85)          
1 40967U 15058D   24348.56594397  .00005465  00000+0  48090-3 0  9997
2 40967  64.7744 184.2719 0184293 250.1575 107.9589 14.85352356 31605
SINOD-D 1               
1 40968U 15058E   24347.91467915  .00007334  00000+0  60586-3 0  9992
2 40968  64.7747 177.0148 0176800 249.3285 108.8793 14.88235403 34378
SNAP-3 ALICE            
1 40970U 15058G   24348.65799309  .00035081  00000+0  18729-2 0  9993
2 40970  64.7667 118.7922 0133019 247.7618 110.9349 15.07583322 32727
LMRST-SAT               
1 40971U 15058H   24348.54976776  .00005360  00000+0  47101-3 0  9991
2 40971  64.7745 179.9002 0185790 251.5558 106.5278 14.85249093 31609
SNAP-3 EDDIE            
1 40972U 15058J   24348.61977758  .00033201  00000+0  17489-2 0  9991
2 40972  64.7639 111.9160 0133381 248.7871 109.8959 15.08018708 34820
PROPCUBE 3              
1 40973U 15058K   24347.92668058  .00007193  00000+0  59565-3 0  9998
2 40973  64.7682 167.7788 0181770 253.2001 104.9101 14.87569161 32581
BISONSAT                
1 40974U 15058L   24347.84825919  .00018851  00000+0  12275-2 0  9990
2 40974  64.7639 134.6551 0154483 251.1542 107.2767 14.98661068 32465
SNAP-3 JIMI             
1 40975U 15058M   24348.16715768  .00011243  00000+0  84257-3 0  9995
2 40975  64.7661 151.8380 0170340 252.1792 106.0675 14.92157890 31685
PROPCUBE 1 (FLORA)      
1 40976U 15058N   24348.62262869  .00004805  00000+0  44033-3 0  9990
2 40976  64.7740 196.1338 0184815 252.9004 105.1791 14.83971808 34398
SINOD-D 3               
1 40977U 15058P   24347.98959374  .00006228  00000+0  53626-3 0  9992
2 40977  64.7721 189.3440 0177226 252.3165 105.8528 14.86844566 32572
HORYU-4                 
1 41340U 16012D   24348.41962241  .00021046  00000+0  79423-3 0  9992
2 41340  31.0004 240.1844 0008934   0.4211 359.6438 15.25799577485458
RAVAN                   
1 41849U 16067B   24348.08481990  .00020126  00000+0  88361-3 0  9995
2 41849  98.0566 177.2518 0011283 135.1633 225.0515 15.21925546443113
CELTEE 1                
1 41850U 16067C   24348.25919671  .00008519  00000+0  51503-3 0  9998
2 41850  98.1054 167.6558 0000892   7.2737 352.8504 15.10935068442421
